[{"OBJECT_NAME":"SITRO-AIS 22","OBJECT_ID":"2024-199F","EPOCH":"2026-03-09T22:54:34.366752","MEAN_MOTION":14.95387083,"ECCENTRICITY":0.00134988,"INCLINATION":97.3323,"RA_OF_ASC_NODE":273.3747,"ARG_OF_PERICENTER":41.8157,"MEAN_ANOMALY":318.4094,"EPHEMERIS_TYPE":0,"CLASSIFICATION_TYPE":"U","NORAD_CAT_ID":61740,"ELEMENT_SET_NO":999,"REV_AT_EPOCH":11708,"BSTAR":0.00031759382,"MEAN_MOTION_DOT":3.46e-5,"MEAN_MOTION_DDOT":0},{"OBJECT_NAME":"STARLINK-34391","OBJECT_ID":"2025-123H","EPOCH":"2026-03-09T18:12:30.422016","MEAN_MOTION":14.98336454,"ECCENTRICITY":0.00034195,"INCLINATION":70.002,"RA_OF_ASC_NODE":194.0889,"ARG_OF_PERICENTER":266.5845,"MEAN_ANOMALY":93.4923,"EPHEMERIS_TYPE":0,"CLASSIFICATION_TYPE":"U","NORAD_CAT_ID":64298,"ELEMENT_SET_NO":999,"REV_AT_EPOCH":4163,"BSTAR":0.0003828861,"MEAN_MOTION_DOT":4.479e-5,"MEAN_MOTION_DDOT":0}]
